{
    "CCSDS_OMM_VERS": "3.0",
    "COMMENT": "GENERATED VIA SPACE-TRACK.ORG API",
    "CREATION_DATE": "2025-05-22T22:56:18",
    "ORIGINATOR": "18 SPCS",
    "OBJECT_NAME": "BEIDOU 3M22",
    "OBJECT_ID": "2019-078B",
    "CENTER_NAME": "EARTH",
    "REF_FRAME": "TEME",
    "TIME_SYSTEM": "UTC",
    "MEAN_ELEMENT_THEORY": "SGP4",
    "EPOCH": "2025-05-22T07:33:02.783520",
    "MEAN_MOTION": "1.86227673",
    "ECCENTRICITY": "0.00044560",
    "INCLINATION": "54.2623",
    "RA_OF_ASC_NODE": "313.5148",
    "ARG_OF_PERICENTER": "38.6009",
    "MEAN_ANOMALY": "321.4261",
    "EPHEMERIS_TYPE": "0",
    "CLASSIFICATION_TYPE": "U",
    "NORAD_CAT_ID": "44794",
    "ELEMENT_SET_NO": "999",
    "REV_AT_EPOCH": "3737",
    "BSTAR": "0.00000000000000",
    "MEAN_MOTION_DOT": "-0.00000054",
    "MEAN_MOTION_DDOT": "0.0000000000000",
    "SEMIMAJOR_AXIS": "27906.521",
    "PERIOD": "773.247",
    "APOAPSIS": "21540.821",
    "PERIAPSIS": "21515.951",
    "OBJECT_TYPE": "PAYLOAD",
    "RCS_SIZE": "LARGE",
    "COUNTRY_CODE": "PRC",
    "LAUNCH_DATE": "2019-11-23",
    "SITE": "XSC",
    "DECAY_DATE": null,
    "FILE": "4736467",
    "GP_ID": "288163856",
    "TLE_LINE0": "0 BEIDOU 3M22",
    "TLE_LINE1": "1 44794U 19078B   25142.31461555 -.00000054  00000-0  00000+0 0  9996",
    "TLE_LINE2": "2 44794  54.2623 313.5148 0004456  38.6009 321.4261  1.86227673 37373"
}